CCSDS_OMM_VERS = 2.0
CREATION_DATE  = 
ORIGINATOR     = 

OBJECT_NAME    = USA 568
OBJECT_ID      = 2024-134K
CENTER_NAME    = EARTH
REF_FRAME      = TEME
TIME_SYSTEM    = UTC
MEAN_ELEMENT_THEORY = SGP/SGP4

EPOCH          = 2025-12-02T16:00:03.000096
MEAN_MOTION    = 15.87051116
ECCENTRICITY   = .0000717
INCLINATION    = 53.1571
RA_OF_ASC_NODE = 236.7807
ARG_OF_PERICENTER = 110.7411
MEAN_ANOMALY   = 313.9012

EPHEMERIS_TYPE = 0
CLASSIFICATION_TYPE = U
NORAD_CAT_ID   = 66551
ELEMENT_SET_NO = 999
REV_AT_EPOCH   = 262
BSTAR          = -.74303E-2
MEAN_MOTION_DOT = -.1709685E-1
MEAN_MOTION_DDOT = 0

CCSDS_OMM_VERS = 2.0
CREATION_DATE  = 
ORIGINATOR     = 

OBJECT_NAME    = GLOBAL-33
OBJECT_ID      = 2025-267A
CENTER_NAME    = EARTH
REF_FRAME      = TEME
TIME_SYSTEM    = UTC
MEAN_ELEMENT_THEORY = SGP/SGP4

EPOCH          = 2025-12-16T06:00:18.289152
MEAN_MOTION    = 15.31623856
ECCENTRICITY   = .00037572
INCLINATION    = 42.0219
RA_OF_ASC_NODE = 36.7279
ARG_OF_PERICENTER = 92.6131
MEAN_ANOMALY   = 267.5137

EPHEMERIS_TYPE = 0
CLASSIFICATION_TYPE = U
NORAD_CAT_ID   = 66554
ELEMENT_SET_NO = 999
REV_AT_EPOCH   = 394
BSTAR          = .30439527E-3
MEAN_MOTION_DOT = .9257E-4
MEAN_MOTION_DDOT = 0

CCSDS_OMM_VERS = 2.0
CREATION_DATE  = 
ORIGINATOR     = 

OBJECT_NAME    = ELECTRON KICK STAGE R/B
OBJECT_ID      = 2025-267B
CENTER_NAME    = EARTH
REF_FRAME      = TEME
TIME_SYSTEM    = UTC
MEAN_ELEMENT_THEORY = SGP/SGP4

EPOCH          = 2025-12-17T08:13:51.370752
MEAN_MOTION    = 15.33033306
ECCENTRICITY   = .00066844
INCLINATION    = 42.0197
RA_OF_ASC_NODE = 30.2077
ARG_OF_PERICENTER = 91.1186
MEAN_ANOMALY   = 269.0418

EPHEMERIS_TYPE = 0
CLASSIFICATION_TYPE = U
NORAD_CAT_ID   = 66555
ELEMENT_SET_NO = 999
REV_AT_EPOCH   = 411
BSTAR          = .63009598E-3
MEAN_MOTION_DOT = .2036E-3
MEAN_MOTION_DDOT = 0

CCSDS_OMM_VERS = 2.0
CREATION_DATE  = 
ORIGINATOR     = 

OBJECT_NAME    = STARLINK-35699
OBJECT_ID      = 2025-268A
CENTER_NAME    = EARTH
REF_FRAME      = TEME
TIME_SYSTEM    = UTC
MEAN_ELEMENT_THEORY = SGP/SGP4

EPOCH          = 2025-12-17T07:05:35.152800
MEAN_MOTION    = 15.50596272
ECCENTRICITY   = .00017841
INCLINATION    = 43.0005
RA_OF_ASC_NODE = 94.5563
ARG_OF_PERICENTER = 268.7939
MEAN_ANOMALY   = 91.2717

EPHEMERIS_TYPE = 0
CLASSIFICATION_TYPE = U
NORAD_CAT_ID   = 66557
ELEMENT_SET_NO = 999
REV_AT_EPOCH   = 533
BSTAR          = .18914815E-2
MEAN_MOTION_DOT = .112298E-2
MEAN_MOTION_DDOT = 0

CCSDS_OMM_VERS = 2.0
CREATION_DATE  = 
ORIGINATOR     = 

OBJECT_NAME    = STARLINK-35695
OBJECT_ID      = 2025-268B
CENTER_NAME    = EARTH
REF_FRAME      = TEME
TIME_SYSTEM    = UTC
MEAN_ELEMENT_THEORY = SGP/SGP4

EPOCH          = 2025-12-16T14:04:46.727616
MEAN_MOTION    = 15.50585399
ECCENTRICITY   = .0003941
INCLINATION    = 43.0027
RA_OF_ASC_NODE = 98.6973
ARG_OF_PERICENTER = 278.2964
MEAN_ANOMALY   = 81.7450

EPHEMERIS_TYPE = 0
CLASSIFICATION_TYPE = U
NORAD_CAT_ID   = 66558
ELEMENT_SET_NO = 999
REV_AT_EPOCH   = 522
BSTAR          = .11942178E-2
MEAN_MOTION_DOT = .7038E-3
MEAN_MOTION_DDOT = 0

CCSDS_OMM_VERS = 2.0
CREATION_DATE  = 
ORIGINATOR     = 

OBJECT_NAME    = STARLINK-35419
OBJECT_ID      = 2025-268C
CENTER_NAME    = EARTH
REF_FRAME      = TEME
TIME_SYSTEM    = UTC
MEAN_ELEMENT_THEORY = SGP/SGP4

EPOCH          = 2025-12-17T07:04:36.604704
MEAN_MOTION    = 15.50608017
ECCENTRICITY   = .0001894
INCLINATION    = 42.9993
RA_OF_ASC_NODE = 94.5526
ARG_OF_PERICENTER = 288.6146
MEAN_ANOMALY   = 71.4508

EPHEMERIS_TYPE = 0
CLASSIFICATION_TYPE = U
NORAD_CAT_ID   = 66559
ELEMENT_SET_NO = 999
REV_AT_EPOCH   = 533
BSTAR          = .14357802E-2
MEAN_MOTION_DOT = .84897E-3
MEAN_MOTION_DDOT = 0

CCSDS_OMM_VERS = 2.0
CREATION_DATE  = 
ORIGINATOR     = 

OBJECT_NAME    = STARLINK-35411
OBJECT_ID      = 2025-268D
CENTER_NAME    = EARTH
REF_FRAME      = TEME
TIME_SYSTEM    = UTC
MEAN_ELEMENT_THEORY = SGP/SGP4

EPOCH          = 2025-12-16T14:03:46.391040
MEAN_MOTION    = 15.50572563
ECCENTRICITY   = .00016362
INCLINATION    = 43.0003
RA_OF_ASC_NODE = 98.6913
ARG_OF_PERICENTER = 264.1834
MEAN_ANOMALY   = 95.8840

EPHEMERIS_TYPE = 0
CLASSIFICATION_TYPE = U
NORAD_CAT_ID   = 66560
ELEMENT_SET_NO = 999
REV_AT_EPOCH   = 522
BSTAR          = .10681083E-2
MEAN_MOTION_DOT = .62809E-3
MEAN_MOTION_DDOT = 0

CCSDS_OMM_VERS = 2.0
CREATION_DATE  = 
ORIGINATOR     = 

OBJECT_NAME    = STARLINK-35305
OBJECT_ID      = 2025-268E
CENTER_NAME    = EARTH
REF_FRAME      = TEME
TIME_SYSTEM    = UTC
MEAN_ELEMENT_THEORY = SGP/SGP4

EPOCH          = 2025-12-17T07:03:08.608896
MEAN_MOTION    = 15.50651123
ECCENTRICITY   = .00014943
INCLINATION    = 42.9994
RA_OF_ASC_NODE = 94.5436
ARG_OF_PERICENTER = 277.3627
MEAN_ANOMALY   = 82.7063

EPHEMERIS_TYPE = 0
CLASSIFICATION_TYPE = U
NORAD_CAT_ID   = 66561
ELEMENT_SET_NO = 999
REV_AT_EPOCH   = 533
BSTAR          = .13548207E-2
MEAN_MOTION_DOT = .80163E-3
MEAN_MOTION_DDOT = 0

CCSDS_OMM_VERS = 2.0
CREATION_DATE  = 
ORIGINATOR     = 

OBJECT_NAME    = STARLINK-35579
OBJECT_ID      = 2025-268F
CENTER_NAME    = EARTH
REF_FRAME      = TEME
TIME_SYSTEM    = UTC
MEAN_ELEMENT_THEORY = SGP/SGP4

EPOCH          = 2025-12-17T07:03:38.663136
MEAN_MOTION    = 15.50620030
ECCENTRICITY   = .00020466
INCLINATION    = 42.9995
RA_OF_ASC_NODE = 94.5467
ARG_OF_PERICENTER = 265.3857
MEAN_ANOMALY   = 94.6769

EPHEMERIS_TYPE = 0
CLASSIFICATION_TYPE = U
NORAD_CAT_ID   = 66562
ELEMENT_SET_NO = 999
REV_AT_EPOCH   = 533
BSTAR          = .12114985E-2
MEAN_MOTION_DOT = .71489E-3
MEAN_MOTION_DDOT = 0

CCSDS_OMM_VERS = 2.0
CREATION_DATE  = 
ORIGINATOR     = 

OBJECT_NAME    = STARLINK-35437
OBJECT_ID      = 2025-268G
CENTER_NAME    = EARTH
REF_FRAME      = TEME
TIME_SYSTEM    = UTC
MEAN_ELEMENT_THEORY = SGP/SGP4

EPOCH          = 2025-12-17T08:35:24.454752
MEAN_MOTION    = 15.50619778
ECCENTRICITY   = .00020809
INCLINATION    = 43.0005
RA_OF_ASC_NODE = 94.1634
ARG_OF_PERICENTER = 277.1419
MEAN_ANOMALY   = 82.9205

EPHEMERIS_TYPE = 0
CLASSIFICATION_TYPE = U
NORAD_CAT_ID   = 66563
ELEMENT_SET_NO = 999
REV_AT_EPOCH   = 534
BSTAR          = .11699718E-2
MEAN_MOTION_DOT = .69005E-3
MEAN_MOTION_DDOT = 0

CCSDS_OMM_VERS = 2.0
CREATION_DATE  = 
ORIGINATOR     = 

OBJECT_NAME    = STARLINK-35358
OBJECT_ID      = 2025-268H
CENTER_NAME    = EARTH
REF_FRAME      = TEME
TIME_SYSTEM    = UTC
MEAN_ELEMENT_THEORY = SGP/SGP4

EPOCH          = 2025-12-16T14:01:49.179936
MEAN_MOTION    = 15.50594418
ECCENTRICITY   = .00027116
INCLINATION    = 43.0010
RA_OF_ASC_NODE = 98.6796
ARG_OF_PERICENTER = 274.7611
MEAN_ANOMALY   = 85.2939

EPHEMERIS_TYPE = 0
CLASSIFICATION_TYPE = U
NORAD_CAT_ID   = 66564
ELEMENT_SET_NO = 999
REV_AT_EPOCH   = 522
BSTAR          = .10025673E-2
MEAN_MOTION_DOT = .58955E-3
MEAN_MOTION_DDOT = 0

CCSDS_OMM_VERS = 2.0
CREATION_DATE  = 
ORIGINATOR     = 

OBJECT_NAME    = STARLINK-35893
OBJECT_ID      = 2025-268J
CENTER_NAME    = EARTH
REF_FRAME      = TEME
TIME_SYSTEM    = UTC
MEAN_ELEMENT_THEORY = SGP/SGP4

EPOCH          = 2025-12-16T14:01:19.435008
MEAN_MOTION    = 15.50602866
ECCENTRICITY   = .00028488
INCLINATION    = 43.0027
RA_OF_ASC_NODE = 98.6769
ARG_OF_PERICENTER = 273.0257
MEAN_ANOMALY   = 87.0278

EPHEMERIS_TYPE = 0
CLASSIFICATION_TYPE = U
NORAD_CAT_ID   = 66565
ELEMENT_SET_NO = 999
REV_AT_EPOCH   = 522
BSTAR          = .11705627E-2
MEAN_MOTION_DOT = .69002E-3
MEAN_MOTION_DDOT = 0

