USA 568                 
1 66551U 24134K   25336.66670139 -.01709685  00000+0 -74303-2 0  9990
2 66551  53.1571 236.7807 0000717 110.7411 313.9012 15.87051116  2624
GLOBAL-33               
1 66554U 25267A   25350.25021168  .00009257  00000+0  30440-3 0  9994
2 66554  42.0219  36.7279 0003757  92.6131 267.5137 15.31623856  3941
ELECTRON KICK STAGE R/B 
1 66555U 25267B   25351.34295568  .00020360  00000+0  63010-3 0  9990
2 66555  42.0197  30.2077 0006684  91.1186 269.0418 15.33033306  4114
STARLINK-35699          
1 66557U 25268A   25351.29554575  .00112298  00000+0  18915-2 0  9998
2 66557  43.0005  94.5563 0001784 268.7939  91.2717 15.50596272  5339
STARLINK-35695          
1 66558U 25268B   25350.58665194  .00070380  00000+0  11942-2 0  9998
2 66558  43.0027  98.6973 0003941 278.2964  81.7450 15.50585399  5229
STARLINK-35419          
1 66559U 25268C   25351.29486811  .00084897  00000+0  14358-2 0  9997
2 66559  42.9993  94.5526 0001894 288.6146  71.4508 15.50608017  5336
STARLINK-35411          
1 66560U 25268D   25350.58595360  .00062809  00000+0  10681-2 0  9994
2 66560  43.0003  98.6913 0001636 264.1834  95.8840 15.50572563  5227
STARLINK-35305          
1 66561U 25268E   25351.29384964  .00080163  00000+0  13548-2 0  9998
2 66561  42.9994  94.5436 0001494 277.3627  82.7063 15.50651123  5332
STARLINK-35579          
1 66562U 25268F   25351.29419749  .00071489  00000+0  12115-2 0  9999
2 66562  42.9995  94.5467 0002046 265.3857  94.6769 15.50620030  5332
STARLINK-35437          
1 66563U 25268G   25351.35792193  .00069005  00000+0  11700-2 0  9994
2 66563  43.0005  94.1634 0002080 277.1419  82.9205 15.50619778  5345
STARLINK-35358          
1 66564U 25268H   25350.58459699  .00058955  00000+0  10026-2 0  9992
2 66564  43.0010  98.6796 0002711 274.7611  85.2939 15.50594418  5228
STARLINK-35893          
1 66565U 25268J   25350.58425272  .00069002  00000+0  11706-2 0  9994
2 66565  43.0027  98.6769 0002848 273.0257  87.0278 15.50602866  5229
